ONEWEB-0196             
1 48218U 21031J   25030.07849466 -.00000023  00000+0 -95272-4 0  9999
2 48218  87.8994  29.7366 0001844  89.5970 270.5371 13.14504843182120
ONEWEB-0183             
1 48219U 21031K   25029.74865961  .00000259  00000+0  66485-3 0  9992
2 48219  87.8994  29.8164 0001787  83.3582 276.7752 13.14502351182184
ONEWEB-0185             
1 48220U 21031L   25029.69870756  .00000049  00000+0  97081-4 0  9990
2 48220  87.8994  29.7967 0001994  82.1588 277.9768 13.14502954182100
ONEWEB-0187             
1 48221U 21031M   25029.97304819  .00000249  00000+0  63823-3 0  9992
2 48221  87.8994  29.7777 0001850  84.6963 275.4378 13.14502921182154
ONEWEB-0192             
1 48222U 21031N   25029.72485921 -.00000107  00000+0 -32281-3 0  9999
2 48222  87.8993  29.8248 0001903  90.6360 269.4988 13.14503974182031
ONEWEB-0219             
1 48223U 21031P   25030.00871379 -.00000128  00000+0 -38022-3 0  9991
2 48223  87.8994  29.7414 0001946  84.6545 275.4807 13.14503086182280
ONEWEB-0202             
1 48224U 21031Q   25029.91358191  .00000231  00000+0  58846-3 0  9991
2 48224  87.8995  29.7771 0002579  96.1418 264.0006 13.14504919182245
ONEWEB-0204             
1 48225U 21031R   25030.02377914 -.00000244  00000+0 -69160-3 0  9997
2 48225  87.8992  29.7672 0001581  78.8118 281.3189 13.14502818182160
